[{"OBJECT_NAME":"STARLINK-3181","OBJECT_ID":"2022-010F","EPOCH":"2026-03-09T21:39:25.644960","MEAN_MOTION":15.08845307,"ECCENTRICITY":0.00014628,"INCLINATION":53.2173,"RA_OF_ASC_NODE":278.1667,"ARG_OF_PERICENTER":80.3897,"MEAN_ANOMALY":279.7261,"EPHEMERIS_TYPE":0,"CLASSIFICATION_TYPE":"U","NORAD_CAT_ID":51461,"ELEMENT_SET_NO":999,"REV_AT_EPOCH":22685,"BSTAR":0.00014559023,"MEAN_MOTION_DOT":2.03e-5,"MEAN_MOTION_DDOT":0},{"OBJECT_NAME":"FENGYUN 1C DEB","OBJECT_ID":"1999-025DVA","EPOCH":"2026-03-08T04:27:49.439232","MEAN_MOTION":15.15496966,"ECCENTRICITY":0.00338373,"INCLINATION":98.8203,"RA_OF_ASC_NODE":206.4896,"ARG_OF_PERICENTER":4.2711,"MEAN_ANOMALY":355.88,"EPHEMERIS_TYPE":0,"CLASSIFICATION_TYPE":"U","NORAD_CAT_ID":36225,"ELEMENT_SET_NO":999,"REV_AT_EPOCH":68062,"BSTAR":0.0036229129,"MEAN_MOTION_DOT":0.00070122,"MEAN_MOTION_DDOT":0}]
